1 56322U 23058F   25355.49199429  .00000416  00000+0  36912-4 0  9998
2 56322  97.6074 353.5759 0001869  62.2510 297.8904 15.01259991146046
